{"fetched_at":"2026-03-29T16:36:15Z","count":15609,"tles":[{"name":"STARLINK-35829","line1":"1 66350U 25254C   26087.87111182  .00017734  00000+0  60913-3 0  9993","line2":"2 66350  53.1590 143.2700 0001334  94.1037 266.0117 15.30216462 21913","category":"Starlink"}]}